[{"OBJECT_NAME":"GUOWANG GROUP 20 OBJECT D","OBJECT_ID":"2026-047D","EPOCH":"2026-04-02T13:48:14.018400","MEAN_MOTION":13.8659404,"ECCENTRICITY":7.103e-5,"INCLINATION":50.0067,"RA_OF_ASC_NODE":333.7806,"ARG_OF_PERICENTER":245.036,"MEAN_ANOMALY":115.0463,"EPHEMERIS_TYPE":0,"CLASSIFICATION_TYPE":"U","NORAD_CAT_ID":68132,"ELEMENT_SET_NO":999,"REV_AT_EPOCH":290,"BSTAR":5.1916391e-5,"MEAN_MOTION_DOT":-8.4e-7,"MEAN_MOTION_DDOT":0},{"OBJECT_NAME":"GUOWANG GROUP 20 OBJECT E","OBJECT_ID":"2026-047E","EPOCH":"2026-04-03T00:06:50.722272","MEAN_MOTION":13.85521979,"ECCENTRICITY":8.26e-5,"INCLINATION":50.0078,"RA_OF_ASC_NODE":332.0369,"ARG_OF_PERICENTER":23.123,"MEAN_ANOMALY":336.9704,"EPHEMERIS_TYPE":0,"CLASSIFICATION_TYPE":"U","NORAD_CAT_ID":68133,"ELEMENT_SET_NO":999,"REV_AT_EPOCH":297,"BSTAR":4.8671e-5,"MEAN_MOTION_DOT":-8.9e-7,"MEAN_MOTION_DDOT":0},{"OBJECT_NAME":"GUOWANG GROUP 20 OBJECT F","OBJECT_ID":"2026-047F","EPOCH":"2026-04-02T13:36:24.060096","MEAN_MOTION":13.8719072,"ECCENTRICITY":6.29e-5,"INCLINATION":50.0093,"RA_OF_ASC_NODE":333.7419,"ARG_OF_PERICENTER":256.4099,"MEAN_ANOMALY":103.6728,"EPHEMERIS_TYPE":0,"CLASSIFICATION_TYPE":"U","NORAD_CAT_ID":68134,"ELEMENT_SET_NO":999,"REV_AT_EPOCH":290,"BSTAR":9.5092278e-5,"MEAN_MOTION_DOT":-3.3e-7,"MEAN_MOTION_DDOT":0},{"OBJECT_NAME":"GUOWANG GROUP 20 OBJECT G","OBJECT_ID":"2026-047G","EPOCH":"2026-04-02T13:40:04.450944","MEAN_MOTION":13.87026021,"ECCENTRICITY":9.279e-5,"INCLINATION":50.0112,"RA_OF_ASC_NODE":333.7611,"ARG_OF_PERICENTER":224.2337,"MEAN_ANOMALY":135.8486,"EPHEMERIS_TYPE":0,"CLASSIFICATION_TYPE":"U","NORAD_CAT_ID":68135,"ELEMENT_SET_NO":999,"REV_AT_EPOCH":291,"BSTAR":0.00013110379,"MEAN_MOTION_DOT":9.0e-8,"MEAN_MOTION_DDOT":0},{"OBJECT_NAME":"GUOWANG GROUP 20 OBJECT H","OBJECT_ID":"2026-047H","EPOCH":"2026-04-02T11:48:51.915456","MEAN_MOTION":13.87381469,"ECCENTRICITY":9.093e-5,"INCLINATION":50.0086,"RA_OF_ASC_NODE":334.0113,"ARG_OF_PERICENTER":305.9014,"MEAN_ANOMALY":54.1799,"EPHEMERIS_TYPE":0,"CLASSIFICATION_TYPE":"U","NORAD_CAT_ID":68136,"ELEMENT_SET_NO":999,"REV_AT_EPOCH":289,"BSTAR":4.8250788e-5,"MEAN_MOTION_DOT":-8.8e-7,"MEAN_MOTION_DDOT":0},{"OBJECT_NAME":"GUOWANG GROUP 20 OBJECT J","OBJECT_ID":"2026-047J","EPOCH":"2026-04-02T16:56:00.731328","MEAN_MOTION":13.87066479,"ECCENTRICITY":6.698e-5,"INCLINATION":50.0058,"RA_OF_ASC_NODE":333.1317,"ARG_OF_PERICENTER":182.6269,"MEAN_ANOMALY":177.4625,"EPHEMERIS_TYPE":0,"CLASSIFICATION_TYPE":"U","NORAD_CAT_ID":68137,"ELEMENT_SET_NO":999,"REV_AT_EPOCH":293,"BSTAR":2.4623265e-5,"MEAN_MOTION_DOT":-1.16e-6,"MEAN_MOTION_DDOT":0},{"OBJECT_NAME":"CZ-8A R/B","OBJECT_ID":"2026-047K","EPOCH":"2026-04-03T21:04:05.032992","MEAN_MOTION":14.12233179,"ECCENTRICITY":0.0044766,"INCLINATION":49.9533,"RA_OF_ASC_NODE":326.5212,"ARG_OF_PERICENTER":224.7555,"MEAN_ANOMALY":134.9736,"EPHEMERIS_TYPE":0,"CLASSIFICATION_TYPE":"U","NORAD_CAT_ID":68138,"ELEMENT_SET_NO":999,"REV_AT_EPOCH":311,"BSTAR":0.00011708,"MEAN_MOTION_DOT":6.4e-7,"MEAN_MOTION_DDOT":0},{"OBJECT_NAME":"SHIYAN-30 03","OBJECT_ID":"2026-048A","EPOCH":"2026-04-03T17:41:02.665824","MEAN_MOTION":14.91771069,"ECCENTRICITY":0.00025,"INCLINATION":35.0015,"RA_OF_ASC_NODE":353.9636,"ARG_OF_PERICENTER":57.0069,"MEAN_ANOMALY":303.0876,"EPHEMERIS_TYPE":0,"CLASSIFICATION_TYPE":"U","NORAD_CAT_ID":68139,"ELEMENT_SET_NO":999,"REV_AT_EPOCH":324,"BSTAR":0.00047325,"MEAN_MOTION_DOT":4.836e-5,"MEAN_MOTION_DDOT":0},{"OBJECT_NAME":"SHIYAN-30 04","OBJECT_ID":"2026-048B","EPOCH":"2026-04-03T17:42:02.642976","MEAN_MOTION":14.91768933,"ECCENTRICITY":9.65e-5,"INCLINATION":34.993,"RA_OF_ASC_NODE":353.9615,"ARG_OF_PERICENTER":60.9473,"MEAN_ANOMALY":299.1328,"EPHEMERIS_TYPE":0,"CLASSIFICATION_TYPE":"U","NORAD_CAT_ID":68140,"ELEMENT_SET_NO":999,"REV_AT_EPOCH":324,"BSTAR":0.00045525,"MEAN_MOTION_DOT":4.65e-5,"MEAN_MOTION_DDOT":0},{"OBJECT_NAME":"CZ-2D R/B","OBJECT_ID":"2026-048C","EPOCH":"2026-04-03T21:13:24.232800","MEAN_MOTION":14.95592809,"ECCENTRICITY":0.0015769,"INCLINATION":35.1309,"RA_OF_ASC_NODE":352.7065,"ARG_OF_PERICENTER":187.764,"MEAN_ANOMALY":172.2825,"EPHEMERIS_TYPE":0,"CLASSIFICATION_TYPE":"U","NORAD_CAT_ID":68141,"ELEMENT_SET_NO":999,"REV_AT_EPOCH":327,"BSTAR":0.00025858,"MEAN_MOTION_DOT":2.902e-5,"MEAN_MOTION_DDOT":0},{"OBJECT_NAME":"STARLINK-36604","OBJECT_ID":"2026-049A","EPOCH":"2026-04-03T20:00:01.999008","MEAN_MOTION":15.75173186,"ECCENTRICITY":0.0001749,"INCLINATION":97.2847,"RA_OF_ASC_NODE":114.3348,"ARG_OF_PERICENTER":88.8009,"MEAN_ANOMALY":44.4494,"EPHEMERIS_TYPE":0,"CLASSIFICATION_TYPE":"U","NORAD_CAT_ID":68142,"ELEMENT_SET_NO":999,"REV_AT_EPOCH":467,"BSTAR":0.00055431,"MEAN_MOTION_DOT":0.00083302,"MEAN_MOTION_DDOT":0},{"OBJECT_NAME":"STARLINK-36995","OBJECT_ID":"2026-049B","EPOCH":"2026-04-03T20:00:01.999008","MEAN_MOTION":15.75222753,"ECCENTRICITY":0.0001379,"INCLINATION":97.2852,"RA_OF_ASC_NODE":114.3453,"ARG_OF_PERICENTER":99.5324,"MEAN_ANOMALY":59.7487,"EPHEMERIS_TYPE":0,"CLASSIFICATION_TYPE":"U","NORAD_CAT_ID":68143,"ELEMENT_SET_NO":999,"REV_AT_EPOCH":466,"BSTAR":-0.00015146,"MEAN_MOTION_DOT":-0.00022692,"MEAN_MOTION_DDOT":0},{"OBJECT_NAME":"STARLINK-37020","OBJECT_ID":"2026-049C","EPOCH":"2026-04-03T14:00:03.000384","MEAN_MOTION":15.77205468,"ECCENTRICITY":0.00016304,"INCLINATION":97.2857,"RA_OF_ASC_NODE":114.1059,"ARG_OF_PERICENTER":90.467,"MEAN_ANOMALY":144.5127,"EPHEMERIS_TYPE":0,"CLASSIFICATION_TYPE":"U","NORAD_CAT_ID":68144,"ELEMENT_SET_NO":999,"REV_AT_EPOCH":462,"BSTAR":-0.013479979,"MEAN_MOTION_DOT":-0.01913338,"MEAN_MOTION_DDOT":0},{"OBJECT_NAME":"STARLINK-36244","OBJECT_ID":"2026-049D","EPOCH":"2026-04-03T19:39:24.706944","MEAN_MOTION":15.75214906,"ECCENTRICITY":0.0001576,"INCLINATION":97.2845,"RA_OF_ASC_NODE":114.2964,"ARG_OF_PERICENTER":105.8081,"MEAN_ANOMALY":254.3359,"EPHEMERIS_TYPE":0,"CLASSIFICATION_TYPE":"U","NORAD_CAT_ID":68145,"ELEMENT_SET_NO":999,"REV_AT_EPOCH":337,"BSTAR":0.0014879,"MEAN_MOTION_DOT":0.00228069,"MEAN_MOTION_DDOT":0},{"OBJECT_NAME":"STARLINK-36980","OBJECT_ID":"2026-049E","EPOCH":"2026-04-03T19:02:41.155296","MEAN_MOTION":15.80920327,"ECCENTRICITY":0.0001255,"INCLINATION":97.2853,"RA_OF_ASC_NODE":114.3324,"ARG_OF_PERICENTER":109.8752,"MEAN_ANOMALY":250.2651,"EPHEMERIS_TYPE":0,"CLASSIFICATION_TYPE":"U","NORAD_CAT_ID":68146,"ELEMENT_SET_NO":999,"REV_AT_EPOCH":337,"BSTAR":0.0019094,"MEAN_MOTION_DOT":0.00383993,"MEAN_MOTION_DDOT":0},{"OBJECT_NAME":"STARLINK-37055","OBJECT_ID":"2026-049F","EPOCH":"2026-04-03T19:04:51.436992","MEAN_MOTION":15.80794142,"ECCENTRICITY":0.0001201,"INCLINATION":97.2857,"RA_OF_ASC_NODE":114.3301,"ARG_OF_PERICENTER":61.2246,"MEAN_ANOMALY":298.9143,"EPHEMERIS_TYPE":0,"CLASSIFICATION_TYPE":"U","NORAD_CAT_ID":68147,"ELEMENT_SET_NO":999,"REV_AT_EPOCH":337,"BSTAR":0.00053565,"MEAN_MOTION_DOT":0.00103583,"MEAN_MOTION_DDOT":0}]
